STARLINK-36767          
1 67814U 26032T   26064.73682041  .00207420  00000+0  13541-2 0  9998
2 67814  97.2834 251.0645 0001313  63.1792 296.9607 15.75255793  4169
STARLINK-36797          
1 67815U 26032U   26064.66667824  .00018418  00000+0  12412-3 0  9997
2 67815  97.2838 251.0139 0001548  95.9592 276.6944 15.75182710  4070
STARLINK-36343          
1 67816U 26032V   26064.58756951  .00240898  00000+0  12186-2 0  9995
2 67816  97.2831 250.9608 0001470  78.0858 282.0574 15.80913120  4145
STARLINK-36756          
1 67817U 26032W   26064.66667824 -.00027052  00000+0 -18092-3 0  9995
2 67817  97.2839 251.0341 0001249  95.9323 326.7107 15.75209034  4132
STARLINK-36346          
1 67818U 26032X   26064.58210744  .00217224  00000+0  11025-2 0  9990
2 67818  97.2837 250.9689 0001255  91.5959 268.5453 15.80901810  4143
STARLINK-36788          
1 67819U 26032Y   26064.73012167  .00230870  00000+0  15054-2 0  9995
2 67819  97.2838 251.0735 0001390  86.9445 273.1980 15.75218153  4161
STARLINK-36353          
1 67820U 26032Z   26064.66667824  .00016057  00000+0  10835-3 0  9997
2 67820  97.2837 251.0171 0001333  83.6883 298.9655 15.75183512  4134
STARLINK-36644          
1 67821U 26033A   26064.71692392  .00192782  00000+0  89488-3 0  9993
2 67821  42.9986 295.8705 0001865 266.6803  93.3855 15.82085802  3994
STARLINK-36643          
1 67822U 26033B   26064.71616760  .00334672  00000+0  15205-2 0  9990
2 67822  42.9978 295.8660 0002645 241.1101 118.9505 15.82166391  3991
STARLINK-36646          
1 67823U 26033C   26064.66667824  .00094050  00000+0  44549-3 0  9999
2 67823  42.9984 296.1603 0002320 256.0793 186.0352 15.81958713  4018
STARLINK-36647          
1 67824U 26033D   26064.71467379  .00321687  00000+0  14656-2 0  9993
2 67824  42.9971 295.8537 0002129 256.4694 103.5940 15.82140805  3997
STARLINK-36648          
1 67825U 26033E   26064.71392037  .00349082  00000+0  15826-2 0  9991
2 67825  42.9970 295.8471 0002552 227.3181 132.7476 15.82174274  3997
