CCSDS_OMM_VERS = 2.0
CREATION_DATE  = 
ORIGINATOR     = 

OBJECT_NAME    = STARLINK-36767
OBJECT_ID      = 2026-032T
CENTER_NAME    = EARTH
REF_FRAME      = TEME
TIME_SYSTEM    = UTC
MEAN_ELEMENT_THEORY = SGP/SGP4

EPOCH          = 2026-03-05T17:41:01.283424
MEAN_MOTION    = 15.75255793
ECCENTRICITY   = .0001313
INCLINATION    = 97.2834
RA_OF_ASC_NODE = 251.0645
ARG_OF_PERICENTER = 63.1792
MEAN_ANOMALY   = 296.9607

EPHEMERIS_TYPE = 0
CLASSIFICATION_TYPE = U
NORAD_CAT_ID   = 67814
ELEMENT_SET_NO = 999
REV_AT_EPOCH   = 416
BSTAR          = .13541E-2
MEAN_MOTION_DOT = .20742E-2
MEAN_MOTION_DDOT = 0

CCSDS_OMM_VERS = 2.0
CREATION_DATE  = 
ORIGINATOR     = 

OBJECT_NAME    = STARLINK-36797
OBJECT_ID      = 2026-032U
CENTER_NAME    = EARTH
REF_FRAME      = TEME
TIME_SYSTEM    = UTC
MEAN_ELEMENT_THEORY = SGP/SGP4

EPOCH          = 2026-03-05T16:00:00.999936
MEAN_MOTION    = 15.75182710
ECCENTRICITY   = .0001548
INCLINATION    = 97.2838
RA_OF_ASC_NODE = 251.0139
ARG_OF_PERICENTER = 95.9592
MEAN_ANOMALY   = 276.6944

EPHEMERIS_TYPE = 0
CLASSIFICATION_TYPE = U
NORAD_CAT_ID   = 67815
ELEMENT_SET_NO = 999
REV_AT_EPOCH   = 407
BSTAR          = .12412E-3
MEAN_MOTION_DOT = .18418E-3
MEAN_MOTION_DDOT = 0

CCSDS_OMM_VERS = 2.0
CREATION_DATE  = 
ORIGINATOR     = 

OBJECT_NAME    = STARLINK-36343
OBJECT_ID      = 2026-032V
CENTER_NAME    = EARTH
REF_FRAME      = TEME
TIME_SYSTEM    = UTC
MEAN_ELEMENT_THEORY = SGP/SGP4

EPOCH          = 2026-03-05T14:06:06.005664
MEAN_MOTION    = 15.80913120
ECCENTRICITY   = .000147
INCLINATION    = 97.2831
RA_OF_ASC_NODE = 250.9608
ARG_OF_PERICENTER = 78.0858
MEAN_ANOMALY   = 282.0574

EPHEMERIS_TYPE = 0
CLASSIFICATION_TYPE = U
NORAD_CAT_ID   = 67816
ELEMENT_SET_NO = 999
REV_AT_EPOCH   = 414
BSTAR          = .12186E-2
MEAN_MOTION_DOT = .240898E-2
MEAN_MOTION_DDOT = 0

CCSDS_OMM_VERS = 2.0
CREATION_DATE  = 
ORIGINATOR     = 

OBJECT_NAME    = STARLINK-36756
OBJECT_ID      = 2026-032W
CENTER_NAME    = EARTH
REF_FRAME      = TEME
TIME_SYSTEM    = UTC
MEAN_ELEMENT_THEORY = SGP/SGP4

EPOCH          = 2026-03-05T16:00:00.999936
MEAN_MOTION    = 15.75209034
ECCENTRICITY   = .0001249
INCLINATION    = 97.2839
RA_OF_ASC_NODE = 251.0341
ARG_OF_PERICENTER = 95.9323
MEAN_ANOMALY   = 326.7107

EPHEMERIS_TYPE = 0
CLASSIFICATION_TYPE = U
NORAD_CAT_ID   = 67817
ELEMENT_SET_NO = 999
REV_AT_EPOCH   = 413
BSTAR          = -.18092E-3
MEAN_MOTION_DOT = -.27052E-3
MEAN_MOTION_DDOT = 0

CCSDS_OMM_VERS = 2.0
CREATION_DATE  = 
ORIGINATOR     = 

OBJECT_NAME    = STARLINK-36346
OBJECT_ID      = 2026-032X
CENTER_NAME    = EARTH
REF_FRAME      = TEME
TIME_SYSTEM    = UTC
MEAN_ELEMENT_THEORY = SGP/SGP4

EPOCH          = 2026-03-05T13:58:14.082816
MEAN_MOTION    = 15.80901810
ECCENTRICITY   = .0001255
INCLINATION    = 97.2837
RA_OF_ASC_NODE = 250.9689
ARG_OF_PERICENTER = 91.5959
MEAN_ANOMALY   = 268.5453

EPHEMERIS_TYPE = 0
CLASSIFICATION_TYPE = U
NORAD_CAT_ID   = 67818
ELEMENT_SET_NO = 999
REV_AT_EPOCH   = 414
BSTAR          = .11025E-2
MEAN_MOTION_DOT = .217224E-2
MEAN_MOTION_DDOT = 0

CCSDS_OMM_VERS = 2.0
CREATION_DATE  = 
ORIGINATOR     = 

OBJECT_NAME    = STARLINK-36788
OBJECT_ID      = 2026-032Y
CENTER_NAME    = EARTH
REF_FRAME      = TEME
TIME_SYSTEM    = UTC
MEAN_ELEMENT_THEORY = SGP/SGP4

EPOCH          = 2026-03-05T17:31:22.512288
MEAN_MOTION    = 15.75218153
ECCENTRICITY   = .000139
INCLINATION    = 97.2838
RA_OF_ASC_NODE = 251.0735
ARG_OF_PERICENTER = 86.9445
MEAN_ANOMALY   = 273.1980

EPHEMERIS_TYPE = 0
CLASSIFICATION_TYPE = U
NORAD_CAT_ID   = 67819
ELEMENT_SET_NO = 999
REV_AT_EPOCH   = 416
BSTAR          = .15054E-2
MEAN_MOTION_DOT = .23087E-2
MEAN_MOTION_DDOT = 0

CCSDS_OMM_VERS = 2.0
CREATION_DATE  = 
ORIGINATOR     = 

OBJECT_NAME    = STARLINK-36353
OBJECT_ID      = 2026-032Z
CENTER_NAME    = EARTH
REF_FRAME      = TEME
TIME_SYSTEM    = UTC
MEAN_ELEMENT_THEORY = SGP/SGP4

EPOCH          = 2026-03-05T16:00:00.999936
MEAN_MOTION    = 15.75183512
ECCENTRICITY   = .0001333
INCLINATION    = 97.2837
RA_OF_ASC_NODE = 251.0171
ARG_OF_PERICENTER = 83.6883
MEAN_ANOMALY   = 298.9655

EPHEMERIS_TYPE = 0
CLASSIFICATION_TYPE = U
NORAD_CAT_ID   = 67820
ELEMENT_SET_NO = 999
REV_AT_EPOCH   = 413
BSTAR          = .10835E-3
MEAN_MOTION_DOT = .16057E-3
MEAN_MOTION_DDOT = 0

CCSDS_OMM_VERS = 2.0
CREATION_DATE  = 
ORIGINATOR     = 

OBJECT_NAME    = STARLINK-36644
OBJECT_ID      = 2026-033A
CENTER_NAME    = EARTH
REF_FRAME      = TEME
TIME_SYSTEM    = UTC
MEAN_ELEMENT_THEORY = SGP/SGP4

EPOCH          = 2026-03-05T17:12:22.226688
MEAN_MOTION    = 15.82085802
ECCENTRICITY   = .0001865
INCLINATION    = 42.9986
RA_OF_ASC_NODE = 295.8705
ARG_OF_PERICENTER = 266.6803
MEAN_ANOMALY   = 93.3855

EPHEMERIS_TYPE = 0
CLASSIFICATION_TYPE = U
NORAD_CAT_ID   = 67821
ELEMENT_SET_NO = 999
REV_AT_EPOCH   = 399
BSTAR          = .89488E-3
MEAN_MOTION_DOT = .192782E-2
MEAN_MOTION_DDOT = 0

CCSDS_OMM_VERS = 2.0
CREATION_DATE  = 
ORIGINATOR     = 

OBJECT_NAME    = STARLINK-36643
OBJECT_ID      = 2026-033B
CENTER_NAME    = EARTH
REF_FRAME      = TEME
TIME_SYSTEM    = UTC
MEAN_ELEMENT_THEORY = SGP/SGP4

EPOCH          = 2026-03-05T17:11:16.880640
MEAN_MOTION    = 15.82166391
ECCENTRICITY   = .0002645
INCLINATION    = 42.9978
RA_OF_ASC_NODE = 295.8660
ARG_OF_PERICENTER = 241.1101
MEAN_ANOMALY   = 118.9505

EPHEMERIS_TYPE = 0
CLASSIFICATION_TYPE = U
NORAD_CAT_ID   = 67822
ELEMENT_SET_NO = 999
REV_AT_EPOCH   = 399
BSTAR          = .15205E-2
MEAN_MOTION_DOT = .334672E-2
MEAN_MOTION_DDOT = 0

CCSDS_OMM_VERS = 2.0
CREATION_DATE  = 
ORIGINATOR     = 

OBJECT_NAME    = STARLINK-36646
OBJECT_ID      = 2026-033C
CENTER_NAME    = EARTH
REF_FRAME      = TEME
TIME_SYSTEM    = UTC
MEAN_ELEMENT_THEORY = SGP/SGP4

EPOCH          = 2026-03-05T16:00:00.999936
MEAN_MOTION    = 15.81958713
ECCENTRICITY   = .000232
INCLINATION    = 42.9984
RA_OF_ASC_NODE = 296.1603
ARG_OF_PERICENTER = 256.0793
MEAN_ANOMALY   = 186.0352

EPHEMERIS_TYPE = 0
CLASSIFICATION_TYPE = U
NORAD_CAT_ID   = 67823
ELEMENT_SET_NO = 999
REV_AT_EPOCH   = 401
BSTAR          = .44549E-3
MEAN_MOTION_DOT = .9405E-3
MEAN_MOTION_DDOT = 0

CCSDS_OMM_VERS = 2.0
CREATION_DATE  = 
ORIGINATOR     = 

OBJECT_NAME    = STARLINK-36647
OBJECT_ID      = 2026-033D
CENTER_NAME    = EARTH
REF_FRAME      = TEME
TIME_SYSTEM    = UTC
MEAN_ELEMENT_THEORY = SGP/SGP4

EPOCH          = 2026-03-05T17:09:07.815456
MEAN_MOTION    = 15.82140805
ECCENTRICITY   = .0002129
INCLINATION    = 42.9971
RA_OF_ASC_NODE = 295.8537
ARG_OF_PERICENTER = 256.4694
MEAN_ANOMALY   = 103.5940

EPHEMERIS_TYPE = 0
CLASSIFICATION_TYPE = U
NORAD_CAT_ID   = 67824
ELEMENT_SET_NO = 999
REV_AT_EPOCH   = 399
BSTAR          = .14656E-2
MEAN_MOTION_DOT = .321687E-2
MEAN_MOTION_DDOT = 0

CCSDS_OMM_VERS = 2.0
CREATION_DATE  = 
ORIGINATOR     = 

OBJECT_NAME    = STARLINK-36648
OBJECT_ID      = 2026-033E
CENTER_NAME    = EARTH
REF_FRAME      = TEME
TIME_SYSTEM    = UTC
MEAN_ELEMENT_THEORY = SGP/SGP4

EPOCH          = 2026-03-05T17:08:02.719968
MEAN_MOTION    = 15.82174274
ECCENTRICITY   = .0002552
INCLINATION    = 42.9970
RA_OF_ASC_NODE = 295.8471
ARG_OF_PERICENTER = 227.3181
MEAN_ANOMALY   = 132.7476

EPHEMERIS_TYPE = 0
CLASSIFICATION_TYPE = U
NORAD_CAT_ID   = 67825
ELEMENT_SET_NO = 999
REV_AT_EPOCH   = 399
BSTAR          = .15826E-2
MEAN_MOTION_DOT = .349082E-2
MEAN_MOTION_DDOT = 0

